[{"OBJECT_NAME":"STARLINK-31565","OBJECT_ID":"2024-057D","EPOCH":"2026-03-09T09:11:20.159808","MEAN_MOTION":15.27598609,"ECCENTRICITY":0.00014609,"INCLINATION":43.0003,"RA_OF_ASC_NODE":196.4627,"ARG_OF_PERICENTER":279.4542,"MEAN_ANOMALY":80.6144,"EPHEMERIS_TYPE":0,"CLASSIFICATION_TYPE":"U","NORAD_CAT_ID":59323,"ELEMENT_SET_NO":999,"REV_AT_EPOCH":10970,"BSTAR":-0.00022085213,"MEAN_MOTION_DOT":-6.338e-5,"MEAN_MOTION_DDOT":0},{"OBJECT_NAME":"WT 1B","OBJECT_ID":"2019-032G","EPOCH":"2026-03-09T21:42:21.881088","MEAN_MOTION":15.25021485,"ECCENTRICITY":0.0008099,"INCLINATION":44.9738,"RA_OF_ASC_NODE":242.0209,"ARG_OF_PERICENTER":49.7728,"MEAN_ANOMALY":310.3861,"EPHEMERIS_TYPE":0,"CLASSIFICATION_TYPE":"U","NORAD_CAT_ID":44316,"ELEMENT_SET_NO":999,"REV_AT_EPOCH":37191,"BSTAR":0.00065022477,"MEAN_MOTION_DOT":0.00016297,"MEAN_MOTION_DDOT":0}]
